{"fetched_at": "2026-06-04T18:22:40.367155+00:00", "line1": "1 68764U 26083K   26154.90677127  .00002423  00000+0  17179-3 0  9995", "line2": "2 68764  97.7772 292.0128 0007911  69.3797 290.8277 15.05727228  7208"}
{"fetched_at": "2026-06-22T01:53:05.385742+00:00", "line1": "1 68764U 26083K   26171.45360188  .00001955  00000+0  13924-3 0  9993", "line2": "2 68764  97.7786 308.6946 0006587  19.4826 340.6651 15.05794034  9696"}
